{"fetched_at":"2026-07-20T18:29:09.814Z","source":"https://celestrak.org/NORAD/elements/gp.php?GROUP=stations&FORMAT=JSON","constellation":"iss","records":[{"OBJECT_NAME":"ISS (ZARYA)","OBJECT_ID":"1998-067A","EPOCH":"2026-07-20T02:07:54.205248","CLASSIFICATION_TYPE":"U","MEAN_MOTION":15.49056873,"ECCENTRICITY":0.00068137,"INCLINATION":51.6315,"RA_OF_ASC_NODE":137.2714,"ARG_OF_PERICENTER":316.7062,"MEAN_ANOMALY":43.339,"EPHEMERIS_TYPE":0,"NORAD_CAT_ID":25544,"ELEMENT_SET_NO":999,"REV_AT_EPOCH":57685,"BSTAR":0.00009099994,"MEAN_MOTION_DOT":0.00004577,"MEAN_MOTION_DDOT":0}]}
